GLOBALSTAR M069         
1 31573U 07020C   26191.06177593 -.00000063  00000+0  27558-3 0  9994
2 31573  52.0006 187.3818 0001787 198.8990 203.0847 12.23472114881601
GLOBALSTAR M072         
1 31574U 07020D   26191.05773435 -.00000085  00000+0 -17107-4 0  9996
2 31574  51.9942  39.3581 0001626  25.4808 137.2812 11.91658583877703
GLOBALSTAR M066         
1 32265U 07048C   26191.37890084 -.00000052  00000+0  35917-3 0  9990
2 32265  51.9609 351.3363 0005638  92.3018 275.3096 12.30389006863088
GLOBALSTAR M079         
1 37188U 10054A   26191.04318375 -.00000106  00000+0 -12915-4 0  9997
2 37188  52.0049  39.0932 0001097  68.9697  95.5236 12.62266422725431
GLOBALSTAR M074         
1 37189U 10054B   26190.35881330 -.00000102  00000+0  11849-4 0  9997
2 37189  52.0028  40.4384 0000857  84.4744  88.6853 12.62262010725959
GLOBALSTAR M076         
1 37190U 10054C   26191.33497175 -.00000098  00000+0  31171-4 0  9992
2 37190  52.0040  37.6719 0001088  82.4355  88.5861 12.62262158725791
GLOBALSTAR M077         
1 37191U 10054D   26190.23119853 -.00000088  00000+0 -17914-3 0  9993
2 37191  51.9948 123.3439 0002370 213.9535 294.8688 11.67547826723716
GLOBALSTAR M075         
1 37192U 10054E   26191.18958897 -.00000108  00000+0 -21222-4 0  9999
2 37192  51.9948  80.1556 0000673  57.3562 113.1138 12.62267749724848
GLOBALSTAR M073         
1 37193U 10054F   26191.47653948 -.00000102  00000+0  88235-5 0  9992
2 37193  52.0079 353.4002 0001097  89.7684 303.6426 12.62266868726875
GLOBALSTAR M083         
1 37739U 11033A   26191.33107273 -.00000095  00000+0  51452-4 0  9997
2 37739  51.9874 302.0412 0000856 100.5329 292.8364 12.62263969695871
GLOBALSTAR M088         
1 37740U 11033B   26191.30031149 -.00000077  00000+0  15118-3 0  9992
2 37740  52.0186 208.6180 0000146 160.4134 211.7416 12.62269370691411
GLOBALSTAR M091         
1 37741U 11033C   26191.00263122 -.00000088  00000+0  88008-4 0  9999
2 37741  51.9972 172.4544 0000294  11.2117  28.2560 12.62264222692168
GLOBALSTAR M085         
1 37742U 11033D   26191.25439609 -.00000105  00000+0 -83077-5 0  9995
2 37742  52.0120 123.0001 0000676  31.8877 132.2237 12.62264310692706
GLOBALSTAR M081         
1 37743U 11033E   26191.19644657 -.00000112  00000+0 -43534-4 0  9991
2 37743  51.9950 125.5864 0000565  48.4803  91.9816 12.62265347692840
GLOBALSTAR M089         
1 37744U 11033F   26191.07880424 -.00000111  00000+0 -40768-4 0  9998
2 37744  51.9932  80.0995 0000657  84.6644  62.0110 12.62267551693675
GLOBALSTAR M084         
1 38040U 11080A   26190.52310642 -.00000099  00000+0  28810-4 0  9997
2 38040  52.0029 309.2852 0000958 121.3688 318.8064 12.62267846671586
GLOBALSTAR M080         
1 38041U 11080B   26191.35546861 -.00000104  00000+0 -32632-5 0  9990
2 38041  52.0075 308.4773 0000310  81.3968 312.9165 12.62257300671816
GLOBALSTAR M082         
1 38042U 11080C   26190.60417263 -.00000089  00000+0  84470-4 0  9998
2 38042  52.0070 266.2685 0000269 107.4719  41.0002 12.62264026672423
GLOBALSTAR M092         
1 38043U 11080D   26191.50319950 -.00000090  00000+0  76750-4 0  9997
2 38043  52.0103 353.9283 0000823  96.2557 298.8174 12.62267647670994
GLOBALSTAR M090         
1 38044U 11080E   26191.23949641 -.00000081  00000+0  12812-3 0  9992
2 38044  52.0114 258.2983 0000451 107.2704 288.2798 12.62253056672621
GLOBALSTAR M086         
1 38045U 11080F   26190.23088392 -.00000093  00000+0  57711-4 0  9990
2 38045  51.9889 261.2606 0001626 102.8875 290.4344 12.62287691672444
GLOBALSTAR M097         
1 39072U 13005A   26190.65118117 -.00000088  00000+0  87071-4 0  9991
2 39072  52.0021 174.9530 0000293  35.0733 325.0154 12.62271423619744
GLOBALSTAR M093         
1 39073U 13005B   26190.62439088 -.00000087  00000+0  95113-4 0  9997
2 39073  52.0082 168.3896 0000519  36.9112 323.1790 12.62266296619697
GLOBALSTAR M094         
1 39074U 13005C   26190.38668541 -.00000113  00000+0 -51123-4 0  9993
2 39074  51.9931  83.2090 0000729  47.6467 312.4461 12.62264786621270
GLOBALSTAR M096         
1 39075U 13005D   26191.19205918 -.00000106  00000+0 -12180-4 0  9991
2 39075  52.0063 129.5750 0000628  32.6639 327.4266 12.62265688620291
GLOBALSTAR M078         
1 39076U 13005E   26191.32353845 -.00000080  00000+0  13117-3 0  9990
2 39076  51.9844 213.1543 0000716 323.0651  37.0166 12.62260087618935
GLOBALSTAR M095         
1 39077U 13005F   26191.58778209 -.00000076  00000+0  15635-3 0  9996
2 39077  52.0054 209.9866 0000319   5.0384 355.0486 12.62264108618825
GLOBALSTAR M087         
1 52888U 22064A   26191.36336234 -.00000102  00000+0  12545-4 0  9998
2 52888  52.0015 351.8941 0000947  78.4591 281.6382 12.62269291194061
